COSMOS 2456 [GLONASS-M] 
1 36111U 09070A   26065.71551972 -.00000003  00000+0  00000+0 0  9996
2 36111  64.9504  74.4664 0006338 306.1102 176.9939  2.13103461126246
COSMOS 2457 [GLONASS-M] 
1 36112U 09070B   26066.33254902 -.00000003  00000+0  00000+0 0  9999
2 36112  64.9366  74.2912 0002134 196.6857 168.1357  2.13100930126263
COSMOS 2460 [GLONASS-M] 
1 36402U 10007C   26063.07006766 -.00000051  00000+0  00000+0 0  9997
2 36402  65.4801 318.0258 0001792  14.3302   8.4003  2.13106010124499
NAVSTAR 65 (USA 213)    
1 36585U 10022A   26065.75272985  .00000022  00000+0  00000+0 0  9998
2 36585  54.2884 212.6864 0127327  65.8922 297.4739  2.00557423115548
BEIDOU-2 IGSO-1         
1 36828U 10036A   26064.71564830 -.00000126  00000+0  00000+0 0  9997
2 36828  54.2927 163.8986 0054017 218.9744 143.1840  1.00252203 57065
BEIDOU-2 G4             
1 37210U 10057A   26066.61595219 -.00000113  00000+0  00000+0 0  9998
2 37210   3.3946  69.5351 0008659 212.2543 265.2875  1.00272448 56279
BEIDOU-2 IGSO-2         
1 37256U 10068A   26063.55016868 -.00000178  00000+0  00000+0 0  9999
2 37256  47.7317 273.1244 0047330 213.1251 341.1802  1.00258965 55745
BEIDOU-2 IGSO-3         
1 37384U 11013A   26058.90884667 -.00000154  00000+0  00000+0 0  9999
2 37384  62.2642  41.1818 0035029 190.8154 358.7681  1.00294022 54567
GSAT-8                  
1 37605U 11022A   26066.22822786  .00000083  00000+0  00000+0 0  9993
2 37605   1.8673  83.1201 0007117 216.7605   2.2743  1.00273571 52197
BEIDOU-2 IGSO-4         
1 37763U 11038A   26064.72437745 -.00000100  00000+0  00000+0 0  9996
2 37763  54.5899 166.6081 0154581 230.9953 121.0281  1.00265577 53603
GSAT0101 (GALILEO-PFM)  
1 37846U 11060A   26053.46432651 -.00000082  00000+0  00000+0 0  9992
2 37846  57.0318 344.8758 0003975 357.0591   2.9533  1.70475478 89166
GSAT0102 (GALILEO-FM2)  
1 37847U 11060B   26060.06318653 -.00000106  00000+0  00000+0 0  9999
2 37847  57.0301 344.6971 0005422 341.2092 154.1953  1.70475778 89286
COSMOS 2476 [GLONASS-M] 
1 37867U 11064A   26065.17118656  .00000001  00000+0  00000+0 0  9996
2 37867  65.2104  76.3481 0025186 241.3746  92.4806  2.13103631111562
COSMOS 2477 [GLONASS-M] 
1 37868U 11064B   26066.40834462  .00000000  00000+0  00000+0 0  9993
2 37868  65.2178  76.3849 0022238 242.9634 140.6535  2.13102850111590
COSMOS 2475 [GLONASS-M] 
1 37869U 11064C   26065.66634538  .00000000  00000+0  00000+0 0  9993
2 37869  65.2241  76.4304 0028031 254.4778 235.4579  2.13101515111580
BEIDOU-2 IGSO-5         
1 37948U 11073A   26066.49097997 -.00000140  00000+0  00000+0 0  9991
2 37948  47.8624 272.8005 0108648 221.1571 303.1286  1.00272115 52115
LUCH-5A                 
1 37951U 11074B   26065.82856353 -.00000049  00000+0  00000+0 0  9999
2 37951   8.4932  75.3103 0003865 248.4778 306.1640  1.00276047 52020
